start=new Date('2021-09-29T00:00:00.000Z').valueOf();
sats=[{"COUNTRY_CODE":"US","MEAN_MOTION":"15.69720679","OBJECT_ID":"2021-082M","ELEMENT_SET_NO":"999","FILE":"3133180","BSTAR":"0.00065266000000","TIME_SYSTEM":"UTC","SITE":"AFWTR","OBJECT_TYPE":"PAYLOAD","APOAPSIS":"362.468","GP_ID":"185729102","RCS_SIZE":"LARGE","CENTER_NAME":"EARTH","MEAN_MOTION_DOT":"0.00078349","PERIOD":"91.736","REV_AT_EPOCH":"362","ECCENTRICITY":"0.00041110","CLASSIFICATION_TYPE":"U","EPOCH":"2021-09-28T22:00:00.999936","LAUNCH_DATE":"2021-09-14","INCLINATION":"70.0026","TLE_LINE2":"2 49141  70.0026  85.3021 0004111 272.6511 134.0961 15.69720679  3623","MEAN_ELEMENT_THEORY":"SGP4","DECAY_DATE":null,"TLE_LINE1":"1 49141U 21082M   21271.91667824  .00078349  00000-0  65266-3 0  9997","PERIAPSIS":"356.928","NORAD_CAT_ID":"49141","REF_FRAME":"TEME","RA_OF_ASC_NODE":"85.3021","ARG_OF_PERICENTER":"272.6511","MEAN_ANOMALY":"134.0961","EPHEMERIS_TYPE":"0","SEMIMAJOR_AXIS":"6737.833","MEAN_MOTION_DDOT":"0.0000000000000","OBJECT_NAME":"STARLINK-3093"},{"OBJECT_TYPE":"PAYLOAD","BSTAR":"-0.00012182000000","FILE":"3132662","TIME_SYSTEM":"UTC","SITE":"AFWTR","COUNTRY_CODE":"US","MEAN_MOTION":"15.69803064","OBJECT_ID":"2021-082N","ELEMENT_SET_NO":"999","ECCENTRICITY":"0.00035820","CLASSIFICATION_TYPE":"U","EPOCH":"2021-09-28T14:00:01.000224","LAUNCH_DATE":"2021-09-14","MEAN_MOTION_DOT":"-0.00014762","PERIOD":"91.731","REV_AT_EPOCH":"260","GP_ID":"185718128","RCS_SIZE":"LARGE","CENTER_NAME":"EARTH","APOAPSIS":"361.876","NORAD_CAT_ID":"49142","PERIAPSIS":"357.049","TLE_LINE2":"2 49142  70.0034  86.2330 0003582 272.4202  55.6687 15.69803064  2602","MEAN_ELEMENT_THEORY":"SGP4","DECAY_DATE":null,"TLE_LINE1":"1 49142U 21082N   21271.58334491 -.00014762  00000-0 -12182-3 0  9992","INCLINATION":"70.0034","EPHEMERIS_TYPE":"0","SEMIMAJOR_AXIS":"6737.597","OBJECT_NAME":"STARLINK-3042","MEAN_MOTION_DDOT":"0.0000000000000","MEAN_ANOMALY":"55.6687","REF_FRAME":"TEME","RA_OF_ASC_NODE":"86.2330","ARG_OF_PERICENTER":"272.4202"},{"ELEMENT_SET_NO":"999","OBJECT_ID":"2021-082P","MEAN_MOTION":"15.69764800","COUNTRY_CODE":"US","SITE":"AFWTR","TIME_SYSTEM":"UTC","FILE":"3133180","BSTAR":"0.00032162000000","OBJECT_TYPE":"PAYLOAD","APOAPSIS":"361.775","CENTER_NAME":"EARTH","RCS_SIZE":"MEDIUM","GP_ID":"185729101","REV_AT_EPOCH":"242","PERIOD":"91.733","MEAN_MOTION_DOT":"0.00038381","LAUNCH_DATE":"2021-09-14","EPOCH":"2021-09-28T22:00:00.999936","CLASSIFICATION_TYPE":"U","ECCENTRICITY":"0.00032700","INCLINATION":"70.0029","TLE_LINE1":"1 49143U 21082P   21271.91667824  .00038381  00000-0  32162-3 0  9990","DECAY_DATE":null,"MEAN_ELEMENT_THEORY":"SGP4","TLE_LINE2":"2 49143  70.0029  85.2941 0003270 277.4971 135.9554 15.69764800  2425","PERIAPSIS":"357.369","NORAD_CAT_ID":"49143","ARG_OF_PERICENTER":"277.4971","RA_OF_ASC_NODE":"85.2941","REF_FRAME":"TEME","MEAN_ANOMALY":"135.9554","OBJECT_NAME":"STARLINK-3109","MEAN_MOTION_DDOT":"0.0000000000000","SEMIMAJOR_AXIS":"6737.707","EPHEMERIS_TYPE":"0"},{"SITE":"AFWTR","TIME_SYSTEM":"UTC","FILE":"3133180","BSTAR":"0.00065815000000","OBJECT_TYPE":"PAYLOAD","ELEMENT_SET_NO":"999","OBJECT_ID":"2021-082Q","COUNTRY_CODE":"US","MEAN_MOTION":"15.69757437","REV_AT_EPOCH":"242","MEAN_MOTION_DOT":"0.00079125","PERIOD":"91.734","LAUNCH_DATE":"2021-09-14","EPOCH":"2021-09-28T22:00:00.999936","CLASSIFICATION_TYPE":"U","ECCENTRICITY":"0.00032830","APOAPSIS":"361.805","CENTER_NAME":"EARTH","RCS_SIZE":"LARGE","GP_ID":"185729095","PERIAPSIS":"357.381","NORAD_CAT_ID":"49144","INCLINATION":"70.0030","TLE_LINE1":"1 49144U 21082Q   21271.91667824  .00079125  00000-0  65815-3 0  9993","DECAY_DATE":null,"MEAN_ELEMENT_THEORY":"SGP4","TLE_LINE2":"2 49144  70.0030  85.2899 0003283 277.9348 139.7566 15.69757437  2420","MEAN_ANOMALY":"139.7566","OBJECT_NAME":"STARLINK-3100","MEAN_MOTION_DDOT":"0.0000000000000","SEMIMAJOR_AXIS":"6737.728","EPHEMERIS_TYPE":"0","ARG_OF_PERICENTER":"277.9348","RA_OF_ASC_NODE":"85.2899","REF_FRAME":"TEME"},{"ECCENTRICITY":"0.00033770","CLASSIFICATION_TYPE":"U","EPOCH":"2021-09-28T22:00:00.999936","LAUNCH_DATE":"2021-09-14","PERIOD":"91.734","MEAN_MOTION_DOT":"-0.00004257","REV_AT_EPOCH":"242","GP_ID":"185729118","RCS_SIZE":"LARGE","CENTER_NAME":"EARTH","APOAPSIS":"361.854","OBJECT_TYPE":"PAYLOAD","BSTAR":"-0.00003388500000","FILE":"3133173","TIME_SYSTEM":"UTC","SITE":"AFWTR","MEAN_MOTION":"15.69762386","COUNTRY_CODE":"US","ELEMENT_SET_NO":"999","OBJECT_ID":"2021-082R","EPHEMERIS_TYPE":"0","SEMIMAJOR_AXIS":"6737.714","OBJECT_NAME":"STARLINK-3119","MEAN_MOTION_DDOT":"0.0000000000000","MEAN_ANOMALY":"145.8316","REF_FRAME":"TEME","RA_OF_ASC_NODE":"85.2860","ARG_OF_PERICENTER":"276.1049","NORAD_CAT_ID":"49145","PERIAPSIS":"357.304","TLE_LINE2":"2 49145  70.0029  85.2860 0003377 276.1049 145.8316 15.69762386  2420","MEAN_ELEMENT_THEORY":"SGP4","DECAY_DATE":null,"TLE_LINE1":"1 49145U 21082R   21271.91667824 -.00004257  00000-0 -33885-4 0  9993","INCLINATION":"70.0029"},{"GP_ID":"185718236","RCS_SIZE":"LARGE","CENTER_NAME":"EARTH","APOAPSIS":"361.934","ECCENTRICITY":"0.00034440","EPOCH":"2021-09-28T14:00:01.000224","CLASSIFICATION_TYPE":"U","LAUNCH_DATE":"2021-09-14","PERIOD":"91.734","MEAN_MOTION_DOT":"-0.00005822","REV_AT_EPOCH":"260","COUNTRY_CODE":"US","MEAN_MOTION":"15.69750242","ELEMENT_SET_NO":"999","OBJECT_ID":"2021-082S","OBJECT_TYPE":"PAYLOAD","BSTAR":"-0.00004702200000","FILE":"3132662","TIME_SYSTEM":"UTC","SITE":"AFWTR","RA_OF_ASC_NODE":"86.2160","REF_FRAME":"TEME","ARG_OF_PERICENTER":"269.1415","EPHEMERIS_TYPE":"0","SEMIMAJOR_AXIS":"6737.749","OBJECT_NAME":"STARLINK-3116","MEAN_MOTION_DDOT":"0.0000000000000","MEAN_ANOMALY":"67.3222","TLE_LINE2":"2 49146  70.0003  86.2160 0003444 269.1415  67.3222 15.69750242  2603","MEAN_ELEMENT_THEORY":"SGP4","DECAY_DATE":null,"TLE_LINE1":"1 49146U 21082S   21271.58334491 -.00005822  00000-0 -47022-4 0  9995","INCLINATION":"70.0003","NORAD_CAT_ID":"49146","PERIAPSIS":"357.293"},{"FILE":"3132907","BSTAR":"0.00001667300000","TIME_SYSTEM":"UTC","SITE":"AFWTR","OBJECT_TYPE":"PAYLOAD","COUNTRY_CODE":"US","MEAN_MOTION":"15.69776973","OBJECT_ID":"2021-082T","ELEMENT_SET_NO":"999","PERIOD":"91.733","MEAN_MOTION_DOT":"0.00001781","REV_AT_EPOCH":"359","ECCENTRICITY":"0.00034940","CLASSIFICATION_TYPE":"U","EPOCH":"2021-09-28T22:00:00.999936","LAUNCH_DATE":"2021-09-14","APOAPSIS":"361.891","GP_ID":"185722836","RCS_SIZE":"LARGE","CENTER_NAME":"EARTH","PERIAPSIS":"357.183","NORAD_CAT_ID":"49147","INCLINATION":"70.0033","TLE_LINE2":"2 49147  70.0033  85.2913 0003494 276.9787 138.5987 15.69776973  3592","MEAN_ELEMENT_THEORY":"SGP4","DECAY_DATE":null,"TLE_LINE1":"1 49147U 21082T   21271.91667824  .00001781  00000-0  16673-4 0  9998","MEAN_ANOMALY":"138.5987","EPHEMERIS_TYPE":"0","SEMIMAJOR_AXIS":"6737.672","OBJECT_NAME":"STARLINK-3071","MEAN_MOTION_DDOT":"0.0000000000000","RA_OF_ASC_NODE":"85.2913","REF_FRAME":"TEME","ARG_OF_PERICENTER":"276.9787"},{"OBJECT_ID":"2021-082U","ELEMENT_SET_NO":"999","MEAN_MOTION":"15.69758155","COUNTRY_CODE":"US","SITE":"AFWTR","FILE":"3132726","BSTAR":"0.00047699000000","TIME_SYSTEM":"UTC","OBJECT_TYPE":"PAYLOAD","APOAPSIS":"361.966","CENTER_NAME":"EARTH","GP_ID":"185718428","RCS_SIZE":"LARGE","PERIOD":"91.734","MEAN_MOTION_DOT":"0.00057140","REV_AT_EPOCH":"354","EPOCH":"2021-09-28T20:00:01.999872","CLASSIFICATION_TYPE":"U","LAUNCH_DATE":"2021-09-14","ECCENTRICITY":"0.00035250","INCLINATION":"70.0022","DECAY_DATE":null,"TLE_LINE1":"1 49148U 21082U   21271.83335648  .00057140  00000-0  47699-3 0  9997","TLE_LINE2":"2 49148  70.0022  85.5146 0003525 277.4852  37.7300 15.69758155  3542","MEAN_ELEMENT_THEORY":"SGP4","PERIAPSIS":"357.216","NORAD_CAT_ID":"49148","ARG_OF_PERICENTER":"277.4852","RA_OF_ASC_NODE":"85.5146","REF_FRAME":"TEME","MEAN_ANOMALY":"37.7300","SEMIMAJOR_AXIS":"6737.726","MEAN_MOTION_DDOT":"0.0000000000000","OBJECT_NAME":"STARLINK-3048","EPHEMERIS_TYPE":"0"},{"RA_OF_ASC_NODE":"85.5176","REF_FRAME":"TEME","ARG_OF_PERICENTER":"275.8949","EPHEMERIS_TYPE":"0","OBJECT_NAME":"STARLINK-3053","MEAN_MOTION_DDOT":"0.0000000000000","SEMIMAJOR_AXIS":"6737.760","MEAN_ANOMALY":"37.4687","MEAN_ELEMENT_THEORY":"SGP4","TLE_LINE2":"2 49149  70.0037  85.5176 0003334 275.8949  37.4687 15.69746151  3626","TLE_LINE1":"1 49149U 21082V   21271.83335648  .00022216  00000-0  18741-3 0  9990","DECAY_DATE":null,"INCLINATION":"70.0037","NORAD_CAT_ID":"49149","PERIAPSIS":"357.379","RCS_SIZE":"LARGE","GP_ID":"185718508","CENTER_NAME":"EARTH","APOAPSIS":"361.872","ECCENTRICITY":"0.00033340","LAUNCH_DATE":"2021-09-14","CLASSIFICATION_TYPE":"U","EPOCH":"2021-09-28T20:00:01.999872","REV_AT_EPOCH":"362","MEAN_MOTION_DOT":"0.00022216","PERIOD":"91.735","MEAN_MOTION":"15.69746151","COUNTRY_CODE":"US","ELEMENT_SET_NO":"999","OBJECT_ID":"2021-082V","OBJECT_TYPE":"PAYLOAD","TIME_SYSTEM":"UTC","FILE":"3132731","BSTAR":"0.00018741000000","SITE":"AFWTR"},{"OBJECT_ID":"2021-082W","ELEMENT_SET_NO":"999","COUNTRY_CODE":"US","MEAN_MOTION":"15.69750694","OBJECT_TYPE":"PAYLOAD","SITE":"AFWTR","FILE":"3132730","BSTAR":"0.00048767000000","TIME_SYSTEM":"UTC","CENTER_NAME":"EARTH","GP_ID":"185718481","RCS_SIZE":"LARGE","APOAPSIS":"361.712","EPOCH":"2021-09-28T20:00:01.999872","CLASSIFICATION_TYPE":"U","LAUNCH_DATE":"2021-09-14","ECCENTRICITY":"0.00031160","PERIOD":"91.734","MEAN_MOTION_DOT":"0.00058411","REV_AT_EPOCH":"362","DECAY_DATE":null,"TLE_LINE1":"1 49150U 21082W   21271.83335648  .00058411  00000-0  48767-3 0  9999","TLE_LINE2":"2 49150  70.0024  85.5088 0003116 277.3699  42.3438 15.69750694  3629","MEAN_ELEMENT_THEORY":"SGP4","INCLINATION":"70.0024","NORAD_CAT_ID":"49150","PERIAPSIS":"357.513","ARG_OF_PERICENTER":"277.3699","REF_FRAME":"TEME","RA_OF_ASC_NODE":"85.5088","SEMIMAJOR_AXIS":"6737.747","OBJECT_NAME":"STARLINK-3104","MEAN_MOTION_DDOT":"0.0000000000000","EPHEMERIS_TYPE":"0","MEAN_ANOMALY":"42.3438"}];
